     3.03           NAVIGATION DATA     M (Mixed)           RINEX VERSION / TYPE
BCEmerge            congo               20190804 004603 GMT PGM / RUN BY / DATE 
Merged GPS/GLO/GAL/BDS/QZS/SBAS/IRNSS navigation file       COMMENT 
based on CONGO and MGEX tracking data                       COMMENT 
DLR: O. Montenbruck;  TUM: P. Steigenberger                 COMMENT 
BDUT  9.3132257462e-10 9.769962617e-15     14 2064          TIME SYSTEM CORR    
GAUT  2.7939677238e-09 0.000000000e+00 432000 2064          TIME SYSTEM CORR    
GPGA  1.8335413188e-09-4.440892099e-15 518400 2064          TIME SYSTEM CORR    
GPUT  2.7939677238e-09 8.881784197e-15  61440 2065          TIME SYSTEM CORR    
QZUT  0.0000000000e+00 0.000000000e+00  94208 2065          TIME SYSTEM CORR    
    18                                                      LEAP SECONDS        
                                                            END OF HEADER  
G02 2019 08 03 12 00 00-2.746577374637e-04-8.412825991400e-12 0.000000000000e+00
     1.100000000000e+01 3.531250000000e+00 5.232360805973e-09-3.359527512663e-01
     2.998858690262e-07 1.896120654419e-02 1.424923539162e-06 5.153754251480e+03
     5.616000000000e+05-1.490116119385e-07 2.104200703857e+00 1.527369022369e-07
     9.553817599194e-01 3.528125000000e+02-1.725025373774e+00-9.096093174506e-09
    -3.428714248282e-11 0.000000000000e+00 2.064000000000e+03 0.000000000000e+00
     4.000000000000e+00 0.000000000000e+00-2.048909664154e-08 1.100000000000e+01
     5.553210000000e+05 6.000000000000e+00
E02 2019 08 03 12 00 00 7.224071305245e-05 1.918465386552e-12 0.000000000000e+00
     4.000000000000e+01-6.734375000000e+01 3.026554639578e-09 2.993750841533e+00
    -3.335997462273e-06 8.536153472960e-05 8.102506399155e-06 5.440601097107e+03
     5.616000000000e+05 2.421438694000e-08-2.546595829538e-01-2.607703208923e-08
     9.871281911314e-01 1.774375000000e+02-1.807929141746e+00-5.543088034723e-09
    -5.714523747137e-10 2.580000000000e+02 2.064000000000e+03                   
     5.520000000000e+00 0.000000000000e+00-3.492459654808e-09 0.000000000000e+00
     5.623000000000e+05
C12 2019 08 03 12 00 00 9.321805555373e-04 4.047873147783e-11 1.761828530289e-19
     1.300000000000e+01 1.418125000000e+02 3.563719871809e-09-2.502547718735e+00
     7.110182195902e-06 2.419057302177e-03 6.760936230421e-06 5.282614877701e+03
     5.616000000000e+05 1.369044184685e-07 1.435576251547e+00-1.862645149231e-09
     9.871420581319e-01 2.345937500000e+02-2.342776631902e+00-6.921002573252e-09
     4.582333729736e-10 0.000000000000e+00 7.080000000000e+02 0.000000000000e+00
     2.000000000000e+00 0.000000000000e+00 2.700000000000e-09-4.000000000000e-10
     5.616000000000e+05 1.200000000000e+01 
